zip,county,borough,neighborhood
10474,Bronx,Bronx,Hunts Point and Mott Haven
10475,Bronx,Bronx,Northeast Bronx
10464,Bronx,Bronx,Southeast Bronx
10499,Bronx,Bronx,NA
10550,Bronx,Bronx,NA
10704,Bronx,Bronx,NA
10705,Bronx,Bronx,NA
10803,Bronx,Bronx,NA
11239,Kings,Brooklyn,Canarsie and Flatlands
11224,Kings,Brooklyn,Southern Brooklyn
11202,Kings,Brooklyn,NA
11241,Kings,Brooklyn,NA
11242,Kings,Brooklyn,NA
11243,Kings,Brooklyn,NA
11245,Kings,Brooklyn,NA
11247,Kings,Brooklyn,NA
11251,Kings,Brooklyn,NA
11252,Kings,Brooklyn,NA
11256,Kings,Brooklyn,NA
10020,New York,Manhattan,Chelsea and Clinton
10008,New York,Manhattan,NA
10041,New York,Manhattan,NA
10043,New York,Manhattan,NA
10045,New York,Manhattan,NA
10047,New York,Manhattan,NA
10048,New York,Manhattan,NA
10055,New York,Manhattan,NA
10072,New York,Manhattan,NA
10080,New York,Manhattan,NA
10081,New York,Manhattan,NA
10082,New York,Manhattan,NA
10087,New York,Manhattan,NA
10101,New York,Manhattan,NA
10102,New York,Manhattan,NA
10103,New York,Manhattan,NA
10104,New York,Manhattan,NA
10105,New York,Manhattan,NA
10106,New York,Manhattan,NA
10107,New York,Manhattan,NA
10108,New York,Manhattan,NA
10109,New York,Manhattan,NA
10110,New York,Manhattan,NA
10111,New York,Manhattan,NA
10112,New York,Manhattan,NA
10113,New York,Manhattan,NA
10114,New York,Manhattan,NA
10115,New York,Manhattan,NA
10116,New York,Manhattan,NA
10117,New York,Manhattan,NA
10118,New York,Manhattan,NA
10119,New York,Manhattan,NA
10120,New York,Manhattan,NA
10121,New York,Manhattan,NA
10122,New York,Manhattan,NA
10123,New York,Manhattan,NA
10124,New York,Manhattan,NA
10125,New York,Manhattan,NA
10126,New York,Manhattan,NA
10129,New York,Manhattan,NA
10130,New York,Manhattan,NA
10131,New York,Manhattan,NA
10132,New York,Manhattan,NA
10133,New York,Manhattan,NA
10138,New York,Manhattan,NA
10149,New York,Manhattan,NA
10150,New York,Manhattan,NA
10151,New York,Manhattan,NA
10152,New York,Manhattan,NA
10153,New York,Manhattan,NA
10154,New York,Manhattan,NA
10155,New York,Manhattan,NA
10156,New York,Manhattan,NA
10157,New York,Manhattan,NA
10158,New York,Manhattan,NA
10159,New York,Manhattan,NA
10160,New York,Manhattan,NA
10161,New York,Manhattan,NA
10163,New York,Manhattan,NA
10164,New York,Manhattan,NA
10165,New York,Manhattan,NA
10166,New York,Manhattan,NA
10167,New York,Manhattan,NA
10168,New York,Manhattan,NA
10169,New York,Manhattan,NA
10170,New York,Manhattan,NA
10171,New York,Manhattan,NA
10172,New York,Manhattan,NA
10173,New York,Manhattan,NA
10174,New York,Manhattan,NA
10175,New York,Manhattan,NA
10176,New York,Manhattan,NA
10177,New York,Manhattan,NA
10178,New York,Manhattan,NA
10179,New York,Manhattan,NA
10185,New York,Manhattan,NA
10197,New York,Manhattan,NA
10199,New York,Manhattan,NA
10213,New York,Manhattan,NA
10242,New York,Manhattan,NA
10249,New York,Manhattan,NA
10256,New York,Manhattan,NA
10259,New York,Manhattan,NA
10260,New York,Manhattan,NA
10261,New York,Manhattan,NA
10265,New York,Manhattan,NA
10268,New York,Manhattan,NA
10269,New York,Manhattan,NA
10270,New York,Manhattan,NA
10271,New York,Manhattan,NA
10272,New York,Manhattan,NA
10273,New York,Manhattan,NA
10274,New York,Manhattan,NA
10275,New York,Manhattan,NA
10276,New York,Manhattan,NA
10277,New York,Manhattan,NA
10278,New York,Manhattan,NA
10279,New York,Manhattan,NA
10281,New York,Manhattan,NA
10285,New York,Manhattan,NA
10286,New York,Manhattan,NA
10292,New York,Manhattan,NA
11412,Queens,Queens,Jamaica
11423,Queens,Queens,Jamaica
11433,Queens,Queens,Jamaica
11436,Queens,Queens,Jamaica
11359,Queens,Queens,North Queens
11362,Queens,Queens,Northeast Queens
11363,Queens,Queens,Northeast Queens
11694,Queens,Queens,Rockaways
11695,Queens,Queens,Rockaways
11697,Queens,Queens,Rockaways
11004,Queens,Queens,Southeast Queens
11005,Queens,Queens,Southeast Queens
11411,Queens,Queens,Southeast Queens
11413,Queens,Queens,Southeast Queens
11422,Queens,Queens,Southeast Queens
11427,Queens,Queens,Southeast Queens
11428,Queens,Queens,Southeast Queens
11429,Queens,Queens,Southeast Queens
11414,Queens,Queens,Southwest Queens
11416,Queens,Queens,Southwest Queens
11417,Queens,Queens,Southwest Queens
11419,Queens,Queens,Southwest Queens
11420,Queens,Queens,Southwest Queens
11421,Queens,Queens,Southwest Queens
11001,Queens,Queens,NA
11040,Queens,Queens,NA
11096,Queens,Queens,NA
11351,Queens,Queens,NA
11352,Queens,Queens,NA
11371,Queens,Queens,NA
11380,Queens,Queens,NA
11381,Queens,Queens,NA
11386,Queens,Queens,NA
11405,Queens,Queens,NA
11424,Queens,Queens,NA
11425,Queens,Queens,NA
11430,Queens,Queens,NA
11431,Queens,Queens,NA
11439,Queens,Queens,NA
11451,Queens,Queens,NA
11499,Queens,Queens,NA
11559,Queens,Queens,NA
11580,Queens,Queens,NA
11690,Queens,Queens,NA
10302,Richmond,Staten Island,Port Richmond
10310,Richmond,Staten Island,Port Richmond
10307,Richmond,Staten Island,South Shore
10309,Richmond,Staten Island,South Shore
10311,Richmond,Staten Island,NA
10313,Richmond,Staten Island,NA
